{
  "type": "FeatureCollection",
  "features": [
    {
      "type": "Feature",
      "geometry": {
        "type": "Point",
        "coordinates": [
          -74.67168426513672,
          44.58421325683594
        ]
      },
      "properties": {
        "time": "2026-08-12T23:32:19Z",
        "age_minutes": 58.8,
        "minutes_bin": "30-60"
      }
    },
    {
      "type": "Feature",
      "geometry": {
        "type": "Point",
        "coordinates": [
          -74.61621856689453,
          44.58871078491211
        ]
      },
      "properties": {
        "time": "2026-08-12T23:35:33Z",
        "age_minutes": 55.6,
        "minutes_bin": "30-60"
      }
    },
    {
      "type": "Feature",
      "geometry": {
        "type": "Point",
        "coordinates": [
          -72.39525604248047,
          43.4952278137207
        ]
      },
      "properties": {
        "time": "2026-08-12T23:36:32Z",
        "age_minutes": 54.6,
        "minutes_bin": "30-60"
      }
    },
    {
      "type": "Feature",
      "geometry": {
        "type": "Point",
        "coordinates": [
          -75.33399963378906,
          44.72384262084961
        ]
      },
      "properties": {
        "time": "2026-08-12T23:59:58Z",
        "age_minutes": 31.1,
        "minutes_bin": "30-60"
      }
    },
    {
      "type": "Feature",
      "geometry": {
        "type": "Point",
        "coordinates": [
          -75.31233978271484,
          44.706512451171875
        ]
      },
      "properties": {
        "time": "2026-08-13T00:01:55Z",
        "age_minutes": 29.2,
        "minutes_bin": "15-30"
      }
    },
    {
      "type": "Feature",
      "geometry": {
        "type": "Point",
        "coordinates": [
          -75.3083724975586,
          44.718544006347656
        ]
      },
      "properties": {
        "time": "2026-08-13T00:04:34Z",
        "age_minutes": 26.6,
        "minutes_bin": "15-30"
      }
    },
    {
      "type": "Feature",
      "geometry": {
        "type": "Point",
        "coordinates": [
          -75.42768859863281,
          44.68463897705078
        ]
      },
      "properties": {
        "time": "2026-08-13T00:08:44Z",
        "age_minutes": 22.4,
        "minutes_bin": "15-30"
      }
    },
    {
      "type": "Feature",
      "geometry": {
        "type": "Point",
        "coordinates": [
          -75.41773986816406,
          44.67747116088867
        ]
      },
      "properties": {
        "time": "2026-08-13T00:09:41Z",
        "age_minutes": 21.4,
        "minutes_bin": "15-30"
      }
    },
    {
      "type": "Feature",
      "geometry": {
        "type": "Point",
        "coordinates": [
          -75.2514419555664,
          44.732608795166016
        ]
      },
      "properties": {
        "time": "2026-08-13T00:11:16Z",
        "age_minutes": 19.8,
        "minutes_bin": "15-30"
      }
    },
    {
      "type": "Feature",
      "geometry": {
        "type": "Point",
        "coordinates": [
          -75.35242462158203,
          44.64894485473633
        ]
      },
      "properties": {
        "time": "2026-08-13T00:11:51Z",
        "age_minutes": 19.3,
        "minutes_bin": "15-30"
      }
    },
    {
      "type": "Feature",
      "geometry": {
        "type": "Point",
        "coordinates": [
          -75.39005279541016,
          44.67338943481445
        ]
      },
      "properties": {
        "time": "2026-08-13T00:12:37Z",
        "age_minutes": 18.5,
        "minutes_bin": "15-30"
      }
    },
    {
      "type": "Feature",
      "geometry": {
        "type": "Point",
        "coordinates": [
          -75.34477233886719,
          44.64531326293945
        ]
      },
      "properties": {
        "time": "2026-08-13T00:13:29Z",
        "age_minutes": 17.6,
        "minutes_bin": "15-30"
      }
    },
    {
      "type": "Feature",
      "geometry": {
        "type": "Point",
        "coordinates": [
          -75.33855438232422,
          44.713008880615234
        ]
      },
      "properties": {
        "time": "2026-08-13T00:15:00Z",
        "age_minutes": 16.1,
        "minutes_bin": "15-30"
      }
    },
    {
      "type": "Feature",
      "geometry": {
        "type": "Point",
        "coordinates": [
          -75.36781311035156,
          44.631099700927734
        ]
      },
      "properties": {
        "time": "2026-08-13T00:15:36Z",
        "age_minutes": 15.5,
        "minutes_bin": "15-30"
      }
    },
    {
      "type": "Feature",
      "geometry": {
        "type": "Point",
        "coordinates": [
          -75.25374603271484,
          44.73541259765625
        ]
      },
      "properties": {
        "time": "2026-08-13T00:16:52Z",
        "age_minutes": 14.2,
        "minutes_bin": "5-15"
      }
    },
    {
      "type": "Feature",
      "geometry": {
        "type": "Point",
        "coordinates": [
          -75.27556610107422,
          44.711669921875
        ]
      },
      "properties": {
        "time": "2026-08-13T00:18:07Z",
        "age_minutes": 13.0,
        "minutes_bin": "5-15"
      }
    },
    {
      "type": "Feature",
      "geometry": {
        "type": "Point",
        "coordinates": [
          -75.20695495605469,
          44.74685287475586
        ]
      },
      "properties": {
        "time": "2026-08-13T00:19:33Z",
        "age_minutes": 11.6,
        "minutes_bin": "5-15"
      }
    },
    {
      "type": "Feature",
      "geometry": {
        "type": "Point",
        "coordinates": [
          -75.17610931396484,
          44.69129943847656
        ]
      },
      "properties": {
        "time": "2026-08-13T00:21:00Z",
        "age_minutes": 10.1,
        "minutes_bin": "5-15"
      }
    },
    {
      "type": "Feature",
      "geometry": {
        "type": "Point",
        "coordinates": [
          -75.28128814697266,
          44.708045959472656
        ]
      },
      "properties": {
        "time": "2026-08-13T00:21:31Z",
        "age_minutes": 9.6,
        "minutes_bin": "5-15"
      }
    },
    {
      "type": "Feature",
      "geometry": {
        "type": "Point",
        "coordinates": [
          -75.12098693847656,
          44.66891098022461
        ]
      },
      "properties": {
        "time": "2026-08-13T00:22:09Z",
        "age_minutes": 9.0,
        "minutes_bin": "5-15"
      }
    },
    {
      "type": "Feature",
      "geometry": {
        "type": "Point",
        "coordinates": [
          -75.2315902709961,
          44.73628234863281
        ]
      },
      "properties": {
        "time": "2026-08-13T00:22:10Z",
        "age_minutes": 8.9,
        "minutes_bin": "5-15"
      }
    },
    {
      "type": "Feature",
      "geometry": {
        "type": "Point",
        "coordinates": [
          -75.26016998291016,
          44.682682037353516
        ]
      },
      "properties": {
        "time": "2026-08-13T00:23:01Z",
        "age_minutes": 8.1,
        "minutes_bin": "5-15"
      }
    },
    {
      "type": "Feature",
      "geometry": {
        "type": "Point",
        "coordinates": [
          -75.20440673828125,
          44.724578857421875
        ]
      },
      "properties": {
        "time": "2026-08-13T00:24:13Z",
        "age_minutes": 6.9,
        "minutes_bin": "5-15"
      }
    },
    {
      "type": "Feature",
      "geometry": {
        "type": "Point",
        "coordinates": [
          -75.25414276123047,
          44.692508697509766
        ]
      },
      "properties": {
        "time": "2026-08-13T00:25:13Z",
        "age_minutes": 5.9,
        "minutes_bin": "5-15"
      }
    },
    {
      "type": "Feature",
      "geometry": {
        "type": "Point",
        "coordinates": [
          -75.32215118408203,
          44.69173049926758
        ]
      },
      "properties": {
        "time": "2026-08-13T00:26:22Z",
        "age_minutes": 4.8,
        "minutes_bin": "0-5"
      }
    },
    {
      "type": "Feature",
      "geometry": {
        "type": "Point",
        "coordinates": [
          -75.21985626220703,
          44.6934814453125
        ]
      },
      "properties": {
        "time": "2026-08-13T00:27:43Z",
        "age_minutes": 3.4,
        "minutes_bin": "0-5"
      }
    },
    {
      "type": "Feature",
      "geometry": {
        "type": "Point",
        "coordinates": [
          -75.26583099365234,
          44.70017623901367
        ]
      },
      "properties": {
        "time": "2026-08-13T00:28:46Z",
        "age_minutes": 2.4,
        "minutes_bin": "0-5"
      }
    },
    {
      "type": "Feature",
      "geometry": {
        "type": "Point",
        "coordinates": [
          -75.19713592529297,
          44.68517303466797
        ]
      },
      "properties": {
        "time": "2026-08-13T00:30:09Z",
        "age_minutes": 1.0,
        "minutes_bin": "0-5"
      }
    }
  ]
}